TYVAK-0172              
1 46267U 20059C   26068.62538449  .00278441  00000+0  21652-2 0  9997
2 46267  97.7214 311.0561 0003543  67.1132 293.0503 15.70916107303116
STARLINK-11397 [DTC]    
1 62590U 25008D   26068.52582214  .00236296  00000+0  17886-2 0  9997
2 62590  43.0011 126.6900 0002919 266.1657  93.8877 15.70899051 67203
